[{"OBJECT_NAME":"ICESAT-2","OBJECT_ID":"2018-070A","EPOCH":"2026-03-09T22:54:12.225888","MEAN_MOTION":15.28328617,"ECCENTRICITY":0.00038245,"INCLINATION":91.9993,"RA_OF_ASC_NODE":264.2397,"ARG_OF_PERICENTER":123.8941,"MEAN_ANOMALY":236.2673,"EPHEMERIS_TYPE":0,"CLASSIFICATION_TYPE":"U","NORAD_CAT_ID":43613,"ELEMENT_SET_NO":999,"REV_AT_EPOCH":41730,"BSTAR":0.00014022643,"MEAN_MOTION_DOT":3.87e-5,"MEAN_MOTION_DDOT":0},{"OBJECT_NAME":"STARLINK-35331","OBJECT_ID":"2025-262N","EPOCH":"2026-03-09T23:00:27.092160","MEAN_MOTION":15.27596289,"ECCENTRICITY":0.00011879,"INCLINATION":43.0006,"RA_OF_ASC_NODE":294.9859,"ARG_OF_PERICENTER":285.6938,"MEAN_ANOMALY":74.3783,"EPHEMERIS_TYPE":0,"CLASSIFICATION_TYPE":"U","NORAD_CAT_ID":66468,"ELEMENT_SET_NO":999,"REV_AT_EPOCH":1894,"BSTAR":0.0011637099,"MEAN_MOTION_DOT":0.00031915,"MEAN_MOTION_DDOT":0}]
